CORRECTED ACCELEROGRAM  IIA001  40.001.0    COMP S90W   FILE  2 DERIVED FROM:   
FILE   2  OF UNCORRECTED ACCELEROGRAM DATA OF VOL. I-A, EERL 70-20              
IMPERIAL VALLEY EARTHQUAKE                                                      
MAY 18, 1940 - 2037 PST                                                         
IA001   40.001.0 S                                                      18      
STATION NO. 117   32 47 43N,115 32 55W                                  38      
EL CENTRO SITE IMPERIAL VALLEY IRRIGATION DISTRICT                      50      
COMP S90W                                                               9       
IMPERIAL VALLEY EARTHQUAKE   MAY 18, 1940 - 2037 PST                    52      
EPICENTER  32 44 00N,115 27 00W                                         31      
INSTR PERIOD = 0.1000 SEC  DAMPING = 0.528                              42      
NO. OF POINTS = 1105  DURATION = 53.47 SEC                              42      
UNITS ARE SEC AND G/10.                                                 23      
RMS ACCLN OF COMPLETE RECORD = 0.4126 G/10.                             43      
 ACCELEROGRAM IS BAND-PASS FILTERED BETWEEN  .050- .070 AND 25.00-27.00 HZ      
  2674  INSTRUMENT AND BASELINE CORRECTED DATA                                  
AT EQUALLY-SPACED INTERVALS OF    .020  SEC.                                    
PEAK ACCELERATION =   210.14200  CMS/SEC/SEC AT   11.440 SEC                    
PEAK VELOCITY     =   -36.92861  CMS/SEC     AT    2.140 SEC                    
PEAK DISPLACEMENT =   -19.34397  CMS         AT    3.000 SEC                    
INITIAL VELOCITY  =    12.08807  CMS/SEC        INITIAL DISP. =      .74222  CMS
IMPERIAL VALLEY EARTHQUAKE   MAY 18, 1940 - 2037 PST                            
                                                                                
IIA001  40.001.0   EL CENTRO SITE IMPERIAL VALLEY IRRIGATION DISTRICT   COMP S90
W                                                                               
    2    1    1    1   40    1    0    4  117   32   47   43 -115   32   55   32
   44    0 -115   27    0    5   18 1940 2037    0  270 1105   26   50    0    0
    0    0    0    0    0    0    0    0    0    0    0    0    0    0    0    0
    0    0 1105 1105 2674    2   10   10    1    0   52   81   10   10    2 1337
    5  535    0    0    0    0    0    0    0    0    0    0    0    0    0    0
    0    0    0    0    0    0    0    0    0    0    0    0    0    0    0    0
    0    0    0    0
      .100      .528    53.470      .413      .100      .000      .000      .000
      .000      .000      .000      .000      .000      .000      .000      .000
      .000      .000      .000      .000      .000      .000      .000      .000
      .000      .000      .000      .000      .000      .000      .000      .000
      .000      .000      .000      .000      .000      .000      .000      .000
      .000      .000      .000      .000      .000      .000      .000      .000
      .000      .000     1.000    98.066      .010    53.469    62.832     1.000
     1.000    27.000     2.000    53.460      .020      .070      .020      .000
    11.440   210.142     2.140   -36.929     3.000   -19.344    12.088      .070
    25.000      .200      .200      .742     2.160   -36.485     3.000   -19.344
      .000      .000      .000      .000      .000      .000      .000      .000
      .000      .000      .000      .000      .000      .000      .000      .000
      .000      .000      .000      .000
  2674 POINTS OF ACC DATA EQUALLY SPACED AT   .020 SEC.
    -5.991    -1.857    -6.800    -2.894    -2.879    -5.363    -8.282    -5.292
    -1.408    -5.309   -13.421   -12.403    -6.593    -6.063   -13.264    -4.933
    -9.635   -18.821   -24.252   -13.326    -4.551     8.091    15.582     8.521
     3.140    -3.975    -8.532   -13.232   -17.980   -16.144    -2.273    -2.506
    -8.022    -7.679   -11.024   -13.065    -8.065    -1.341    15.093    32.989
    53.202    64.638    52.524    41.543    40.079    51.516    56.899    57.229
    52.841    49.736    49.758    54.997    49.235    43.122    36.187    27.966
    20.398    14.679    21.267     4.670   -21.454   -47.891   -58.010   -18.770
    12.162    53.780    96.855   110.011   105.938   106.965    99.933    93.628
   112.756   146.891   121.266   109.898    85.817    63.606    38.019    15.523
   -10.653   -33.786   -59.925   -83.455  -109.207  -132.484  -148.525  -119.145
  -110.523  -100.331  -107.850   -82.394   -36.864    22.533   148.085   178.650
   158.943   169.332   152.110   144.646   134.769   126.495   117.943   108.808
    99.737    76.396    59.478     9.479   -54.244  -105.885   -77.020   -58.523
   -24.673    12.808    67.528    82.571    52.145    29.994    -7.358   -44.707
   -85.204  -111.808   -92.167   -77.492   -54.427   -15.635    18.341    61.232
    70.009    31.770     3.772   -28.441   -59.392   -91.904  -110.866   -65.070
   -27.027    15.104   -14.441   -33.037   -77.172  -118.108  -159.176  -178.010
  -148.651  -118.328   -78.750   -32.631   -35.074   -52.886   -68.981   -71.072
   -66.309   -62.092   -54.160   -52.107   -63.424   -69.783   -81.036   -43.061
     5.457    45.891    20.624      .712   -26.025   -48.555   -76.389   -87.848
   -61.069   -35.063   -19.802   -42.919   -57.915   -86.432   -94.638   -41.405
     5.852    51.065    92.599    95.306    93.369    88.808    86.089    74.008
    62.418    50.085    37.628    23.988    12.503    -1.466    17.119    42.148
    71.070    64.258    27.700     6.461   -16.923    22.970    59.027    57.038
     6.483   -14.710   -20.502   -20.868   -43.866   -50.929   -48.222   156.313
    98.483   107.411    67.328    25.560   -26.062   -61.460  -102.234  -109.288
   -95.437   -87.455   -66.096   -52.314   -67.561  -107.916   -77.000   -86.909
   -59.201   -64.460   108.264    92.974   106.828   117.010   103.509   101.092
   153.216   124.472   111.719    87.435    61.266    25.814    -2.364   -43.791
   -69.444   -70.805   -68.981   -67.321   -62.293   -79.386   -62.988   -52.546
   -46.309   -53.322   -62.264   -51.733   -20.610     6.707    13.195    -4.904
   -53.584  -100.219   -32.294    18.098   -11.737   -46.116   -71.596  -106.091
  -121.644  -110.035   -52.844    -1.723    -4.581    14.047    10.744    33.840
    78.004    99.994    99.048    93.107    68.269    44.081    21.101    -1.725
   -19.820   -57.828   -53.071    -8.414     7.432    40.300    53.259    49.788
    30.114    10.595    44.402    79.211    47.104    41.437    13.774    -9.804
   -32.338     -.986    28.670    40.476    23.496    16.737    -6.659   -23.664
   -40.470   -33.877   -13.414     4.771    27.106    43.899    12.463   -11.845
   -47.241   -63.741   -21.189     6.448    42.020    66.066    55.847    49.951
    35.269    17.258      .453   -16.083   -13.223   -13.982   -11.688   -30.987
   -28.846   -15.371    -8.475     7.646    18.072    36.600    29.085     1.284
   -27.408   -24.462   -10.926    -9.238    10.340    24.019    40.748    52.638
    49.376    71.914    52.303    25.999   -13.146   -69.298   -87.277   -61.649
   -41.919     9.105    54.872    92.878    85.317    57.788    39.642    65.764
    71.836    34.141     4.250   -26.191   -56.667   -80.134   -96.102   -85.629
   -66.149   -49.778   -28.428   -11.325    17.509    47.595    73.846    51.664
    36.928    11.283    24.872    31.693    47.127    38.868    23.192     2.664
   -22.642   -49.264   -63.237   -45.983   -35.273   -19.948    -6.292    12.543
    29.884    38.776    31.994    17.967    22.918    36.401    46.172    57.830
    69.037    75.892    58.347    43.443    36.705    63.192    66.181    52.511
    35.258    22.605    -5.057    18.793    42.654    14.922    12.261    -7.948
   -24.114     -.154    24.321    47.687    75.172   100.052   127.771    95.959
    27.802   -41.945   -98.930   -78.971  -113.772  -122.252  -111.738   -40.884
   -65.261   -53.195   -84.720     -.116    23.411    13.388    33.725    33.103
    19.387   -16.047   -47.381   -60.240   -31.547   -20.461    -7.046   -38.879
   -83.616   -99.587  -107.157  -109.819   -78.730   -71.348   -74.071   -74.427
   -77.663   -84.084   -85.182   -90.804   -22.122    -5.206   -13.907    -7.265
   -18.188   -22.371   -31.484   -28.494    -6.395    10.757    36.048    46.113
    34.330    34.271    27.817    27.255    63.960    93.527    74.294    48.483
     5.048   -35.118   -45.999    -8.883    33.200    63.680   102.204    72.829
    47.377   -11.879   -32.583   -25.302   -14.380   -16.130   -26.228   -37.681
   -30.534     2.244    30.674    69.960    82.980    93.785    41.638    54.067
    97.967    41.535    -9.539   -60.577   -96.185   -98.844   -45.057     2.051
    37.411     8.084    -8.796   -36.278   -74.625   -46.792    38.511     3.482
    24.354     3.493    23.765    42.725    28.052    24.261    13.799     2.055
    -4.594     8.900    22.287    41.818    64.343    47.121    10.857   -32.024
   -60.654   -12.511   -17.386    27.957    -3.956   -29.674   -50.481   -42.437
    -9.349    22.181    35.178     6.247   -26.693   -79.058   -70.908   -51.905
   -31.804    -7.246    14.233    58.447   100.797   138.362   132.560   117.459
    70.681    63.017    75.232    57.392    30.325     6.585   -38.543   -84.223
  -123.040  -144.232  -170.151  -189.860  -210.142  -198.360  -182.649  -165.181
  -144.723  -123.016  -116.976  -120.170   -71.387   -38.455     8.534    49.920
    93.156   134.256   165.570    85.087    45.350     2.759   -48.783   -39.384
    -6.973    40.557   102.516   119.709   137.246   138.549   144.532   111.515
    78.281    36.231    24.577    54.369    69.833    92.017    96.556    83.423
    72.363    56.769    41.076    25.900     3.668   -22.633   -41.335   -55.645
   -73.336   -61.702   -36.105   -30.938   -25.184    -9.247     4.615    18.789
    20.991    24.478    25.103    27.251    21.033     6.716    -7.655   -20.179
   -12.538    -4.965     3.110    12.642   -41.631   -70.020   -56.827   -55.886
   -42.238   -32.693   -20.295   -13.042   -12.506    -8.915    11.506     6.800
    -9.707     6.325    16.775    42.575    29.791     9.560    -9.433   -39.259
   -40.535   -20.224    -5.028    25.718    37.734    30.716    26.392    16.815
     7.810    -4.547   -18.123    -3.629    13.770    29.022    48.833    40.796
    23.859     6.080     -.470    15.928    26.409    39.832    29.137    23.651
     9.930    -3.073   -16.712   -30.827   -42.969   -59.369   -53.657   -17.509
     4.377    24.420    42.819   -31.393   -50.494   -23.702   -26.523    15.733
    34.178    22.336    25.591    38.588    36.137    -2.004   -39.345   -73.761
  -102.758  -109.961   -56.612   -25.475    14.868    37.925    18.083     4.802
   -25.069   -21.149     2.088    20.699    49.576    68.284    42.958    14.655
    -1.998   -29.925   -72.458   -92.768    -5.541    56.849    81.937    68.846
    45.983    17.837   -11.851   -37.644   -59.566   -51.771   -20.515    -5.829
    42.222    39.108    33.858    50.100    37.687    31.036    27.403    35.772
    32.919    16.817    -3.500   -22.915   -66.639   -75.408   -43.859   -23.316
      .680    29.268    49.431    31.496    22.575     4.145    -6.873     3.470
    17.574    16.968     4.714    -7.588   -33.549   -42.870   -30.858   -23.482
    -7.091    -9.555   -37.799   -45.923   -50.146   -36.627   -30.299   -17.963
   -22.452   -22.443   -27.299   -23.794   -16.034    -9.688    -3.632     3.459
     2.108    -4.418   -18.597   -36.448   -46.162   -57.276   -70.658   -61.012
   -24.893    -7.450    -5.701    -4.963    -6.444     1.684    30.211    54.775
    48.969    47.110    33.778    22.324     7.587    -3.730   -18.708   -28.857
   -41.640   -49.412   -63.571   -48.516   -24.041    -6.238    22.070    24.814
   -10.166     6.927    16.316    29.221    44.215    53.499    37.173    17.852
    -5.516   -35.274   -41.463   -33.148   -30.386   -18.954   -12.229    -1.510
     5.050    20.667    29.805    35.879    43.854    48.304    44.774    42.236
    37.665    32.681    27.213    22.456    16.528    12.508    11.465    12.178
    11.320    11.834      .275    -8.154   -25.667   -36.709   -52.375    11.134
    30.593    26.484    32.092    15.941     4.991    -8.769    -1.583     4.422
    15.271    22.977    17.770    15.054     9.062     3.763    -2.610    -5.673
      .437     5.755    12.164     7.030   -22.076   -45.978   -80.496   -83.065
   -46.228   -22.814     9.146    34.524    59.069    77.923    85.282    74.034
    64.557    63.033    57.727    39.002    24.835    12.534    18.403    13.410
     2.825   -18.725   -16.839    -3.723     6.939     8.065     -.838    -3.682
   -11.857   -17.505   -24.548   -30.271   -36.737   -41.469   -39.019   -36.146
   -33.450   -25.995   -14.128    -2.235    10.196    18.794     7.303    -5.765
   -28.334   -30.095   -14.753    -3.292    17.315    24.298    22.604    20.634
    14.587      .497   -13.368   -27.561   -43.089   -48.413   -54.591   -57.569
   -64.002   -50.301   -23.014     -.809    27.967    53.311    81.293    94.090
    76.061    62.905    36.246     7.053    -5.556    -3.965    -6.903    -5.455
    -7.113     7.956     9.134    10.347    25.786    36.423    48.114    54.389
    31.666     9.446     -.487     6.177    10.701    21.340     5.729    -5.720
   -20.014   -31.093   -44.185   -45.019   -50.292   -53.629   -45.955   -33.783
   -23.247    -8.083     5.390    20.170    31.813    44.774    56.706    65.164
    52.374    41.369    25.087     8.690   -10.728   -29.859   -48.237   -67.092
   -71.504   -48.875   -37.144   -16.451     4.917    25.170    53.107    65.154
    43.154    30.823     9.432    -5.113   -24.231   -39.115   -55.082   -41.192
   -26.196    -5.808    13.614    28.710    31.697    25.700    14.575      .676
   -17.495   -39.835   -56.529   -72.230   -81.181   -78.442   -84.296   -68.023
   -51.124   -34.020   -14.737     3.331    22.842    40.965    57.949    38.607
    45.346    57.057    66.759    79.035    94.832    91.189    63.390    26.189
   -23.868   -84.708   -91.255   -73.546   -61.462   -36.336   -15.093    11.797
    31.850    21.714    16.587     5.094     8.554     9.868    16.421     2.796
   -17.587   -38.613   -46.282   -36.204   -28.408   -16.014    -1.509    14.505
    30.041    46.635    57.805    50.262    45.276    36.709    27.335    21.796
    34.532    36.622    47.274    49.136    29.903    11.150    -8.134   -30.806
   -21.232    -2.473    13.773    37.950    45.919    33.936    24.451     7.887
    -7.402   -22.412   -33.842   -41.289   -28.384   -26.979   -18.909   -13.325
    -6.723     -.195     9.353    17.878    27.476    35.757    27.845    16.292
     5.421    -9.500   -16.565   -20.134   -30.164   -36.986   -45.410   -35.416
   -21.705    -7.293     6.648    -5.176   -16.680   -29.341   -47.734   -33.531
     -.111    13.352    37.915    65.835    67.252    32.915    16.460   -14.768
   -42.773   -71.126   -51.936   -35.641    -5.095    43.583    51.352    46.880
    40.156    22.284    10.705    -3.551   -15.685   -27.738   -18.906   -11.565
     -.234    10.917    24.132    34.012    47.671    38.469    19.615     8.495
    -8.547   -20.259   -35.403   -41.604   -34.747   -26.721   -13.862     -.851
    13.060    29.269    31.785    19.818    13.888     3.356    -6.395    -7.865
     1.080    -5.257   -11.571   -19.539   -18.566   -13.876   -17.100   -20.797
   -14.604    -8.452    -1.323     6.618    14.498    22.915    31.277    40.108
    47.930    58.766    67.578    54.838    41.285    20.654      .522   -22.043
   -45.881   -67.986   -93.254   -92.464   -79.694   -64.712   -37.085   -15.324
    14.305    28.964     1.591   -24.295   -48.409   -72.782   -43.709   -15.205
    18.837    50.765    83.003    76.707    61.849    46.834    26.296    -2.299
   -38.447   -71.413   -99.064   -68.376    17.883    75.736    58.434    51.700
    29.324     6.842   -14.952   -39.321   -61.541   -86.928   -82.252   -61.725
   -46.168   -20.703     7.562    34.367    58.611    84.562   108.099   117.644
    98.918    85.506    65.595    46.481    25.724     4.656   -16.561   -37.874
   -59.314   -79.226   -96.244  -114.686  -131.034  -148.671  -135.781  -113.325
   -90.511   -56.632   -26.620     7.010    43.858    72.944    45.999    15.659
   -20.316   -57.052   -90.538   -62.826   -30.777     7.029    41.408    25.922
    17.061    -5.535   -29.351   -51.457   -76.490   -87.192   -72.808   -63.009
   -43.214   -19.133     3.583    27.672    31.727    33.861    36.609    40.957
    39.494    41.808    -8.865   -48.877   -95.546  -114.954   -89.220   -69.964
   -39.152    -8.044    28.951    59.976    51.530    49.217    39.982    30.759
    20.024    12.265     4.189    16.274    45.256    69.774    85.237    88.926
    82.931    71.736    52.928    23.774     1.310   -11.883   -25.378   -35.083
   -40.737   -46.666   -43.742   -22.122    -2.194    19.756    44.743    35.641
    14.370    -6.635   -35.052   -60.877   -58.792   -44.114   -32.819   -13.601
     1.399    19.251    20.867    14.719    19.216    16.835    10.152     2.361
    -6.237   -15.645   -14.271   -13.120    -9.603    -6.454    -1.487    -5.930
   -17.888   -28.330   -34.814   -18.384    -6.899    13.076    31.598    54.048
    48.341    29.746    12.772    -6.660      .827     9.106    17.594    28.985
    40.096    48.975    43.865    35.016    24.686    16.011    10.105    18.791
    21.636    25.215    21.896    13.156    14.210    22.167    24.960    32.646
    37.825    32.968    28.857    25.407    22.032    18.823    15.760    13.207
    12.068    10.367     6.955     3.260     1.645    -1.248     1.993     9.256
    14.663    23.783    24.423    18.449    16.576    11.945     7.082     2.106
     -.346    10.177    17.423    27.725    16.862     4.184   -15.800   -16.356
    -1.944     4.229    15.448    25.131    35.235    28.026    18.081     2.036
   -10.212   -21.145   -28.031   -13.240    -8.908     -.598     4.952     9.768
     7.941     2.097    -1.041     8.841    15.732    21.411    15.859     3.325
   -10.375   -22.953   -28.558   -23.161   -13.322     -.605    12.134    24.608
    25.084    19.182    13.966     6.535     -.235    -7.623   -14.174   -21.988
   -24.428   -17.182   -11.098    -3.563     5.004    10.385    16.639    12.579
     2.532    -5.817    -5.684      .044     1.689     1.133      .127    -4.166
   -16.877   -21.195   -28.959   -21.118    -4.665     7.458    12.376     3.725
    -6.762   -18.462   -28.364   -38.983   -43.573   -40.991   -34.341   -28.084
   -19.953   -12.927    -6.313      .179     5.805     6.892     9.977    11.295
    15.138    18.647    19.726    20.330    22.727    16.374     4.734    -4.615
   -14.671   -24.786   -26.213   -23.503   -24.290   -27.799   -31.310   -33.198
   -23.383   -14.297    -6.861     1.189    12.419    22.506    33.326    33.267
    30.708    23.565    15.993     8.090     5.356     2.463    -1.113    -4.644
    -8.264   -11.329   -12.695    -9.765    -5.748    -1.451     4.289     9.306
    14.994    20.148    25.365    30.552    34.982    37.150    33.994    18.957
     7.111    -7.336   -21.388   -32.370   -26.508   -24.447   -18.744   -13.428
    -7.528    -2.742    -3.918    -6.325    -3.044      .075     4.304     5.957
     3.294     1.326      .069     6.052     8.570    10.668    12.646    14.732
    11.950     7.083     2.520    -2.464    -3.203    -4.239    -7.271   -11.349
   -15.358   -19.582   -24.347   -21.389   -14.421    -8.382    -2.154    -7.735
   -11.092   -17.433   -19.223   -12.713    -8.283     -.680     3.800     2.839
     1.112     7.398    17.629    25.171    19.985    17.005     9.819     3.205
    -4.228   -11.110   -17.673   -12.489    -7.698    -1.265     5.337     7.835
     9.096    10.881    10.976    10.916     7.085      .820    -4.446   -11.781
